[{"OBJECT_NAME":"TIANQI-39","OBJECT_ID":"2026-010C","EPOCH":"2026-03-08T16:50:36.580128","MEAN_MOTION":14.04334884,"ECCENTRICITY":0.00155129,"INCLINATION":44.9813,"RA_OF_ASC_NODE":168.7554,"ARG_OF_PERICENTER":221.5775,"MEAN_ANOMALY":138.3881,"EPHEMERIS_TYPE":0,"CLASSIFICATION_TYPE":"U","NORAD_CAT_ID":67478,"ELEMENT_SET_NO":999,"REV_AT_EPOCH":732,"BSTAR":0.00014701681,"MEAN_MOTION_DOT":1.06e-6,"MEAN_MOTION_DDOT":0},{"OBJECT_NAME":"COSMOS 252 DEB","OBJECT_ID":"1968-097ET","EPOCH":"2026-03-08T21:00:26.436672","MEAN_MOTION":13.95651289,"ECCENTRICITY":0.05801012,"INCLINATION":62.793,"RA_OF_ASC_NODE":17.3776,"ARG_OF_PERICENTER":65.663,"MEAN_ANOMALY":300.3848,"EPHEMERIS_TYPE":0,"CLASSIFICATION_TYPE":"U","NORAD_CAT_ID":19479,"ELEMENT_SET_NO":999,"REV_AT_EPOCH":87836,"BSTAR":0.0017136051,"MEAN_MOTION_DOT":9.921e-5,"MEAN_MOTION_DDOT":0}]
